*******************************************************************************
Ephemeris / WWW_USER Tue Mar 27 19:59:04 2018 Pasadena, USA      / Horizons    
*******************************************************************************
Target body name: Jupiter (599)                   {source: jup341}
Center body name: Solar System Barycenter (0)     {source: DE431mx}
Center-site name: BODY CENTER
*******************************************************************************
Start time      : A.D. 2000-Jan-01 00:00:00.0000 TDB
Stop  time      : A.D. 2010-Jan-01 00:00:00.0000 TDB
Step-size       : 7200 minutes
*******************************************************************************
Center geodetic : 0.00000000,0.00000000,0.0000000 {E-lon(deg),Lat(deg),Alt(km)}
Center cylindric: 0.00000000,0.00000000,0.0000000 {E-lon(deg),Dxy(km),Dz(km)}
Center radii    : (undefined)                                                  
Output units    : AU-D                                                         
Output type     : GEOMETRIC cartesian states
Output format   : 2 (position and velocity)
Reference frame : ICRF/J2000.0                                                 
Coordinate systm: Ecliptic and Mean Equinox of Reference Epoch                 
*******************************************************************************
JDTDB
   X     Y     Z
   VX    VY    VZ
*******************************************************************************
$$SOE
2453854.500000000 = A.D. 2006-Apr-29 00:00:00.0000 TDB 
  -3.930435497159743E+00 -3.727111325144051E+00  1.033992020615653E-01
   5.098862507498731E-03 -5.118868557415826E-03 -9.284467253933951E-05
2453859.500000000 = A.D. 2006-May-04 00:00:00.0000 TDB 
  -3.904852301750426E+00 -3.752623804046922E+00  1.029323706583105E-01
   5.135975495241992E-03 -5.085326966361457E-03 -9.383905068037779E-05
2453864.500000000 = A.D. 2006-May-09 00:00:00.0000 TDB 
  -3.879085273818922E+00 -3.777961534792420E+00  1.024608038197549E-01
   5.171362049671430E-03 -5.050585166011630E-03 -9.481082005025292E-05
2453869.500000000 = A.D. 2006-May-14 00:00:00.0000 TDB 
  -3.853136716534493E+00 -3.803123490963458E+00  1.019844834409017E-01
   5.207399119299985E-03 -5.014574715386745E-03 -9.573765759406535E-05
2453874.500000000 = A.D. 2006-May-19 00:00:00.0000 TDB 
  -3.827011879926699E+00 -3.828108325286595E+00  1.015033852214100E-01
   5.242777506050853E-03 -4.979417166718732E-03 -9.670175254921538E-05
2453879.500000000 = A.D. 2006-May-24 00:00:00.0000 TDB 
  -3.800708280978214E+00 -3.852915651541339E+00  1.010175576109677E-01
   5.278147834144130E-03 -4.943981279572820E-03 -9.765661400639220E-05
2453884.500000000 = A.D. 2006-May-29 00:00:00.0000 TDB 
  -3.774224668299346E+00 -3.877543398512437E+00  1.005270610615656E-01
   5.314026208887660E-03 -4.906291581450516E-03 -9.852871663826842E-05
2453889.500000000 = A.D. 2006-Jun-03 00:00:00.0000 TDB 
  -3.747568335049973E+00 -3.901990001635270E+00  1.000318527763332E-01
   5.349422167208854E-03 -4.870977741750591E-03 -9.949057594398429E-05
2453894.500000000 = A.D. 2006-Jun-08 00:00:00.0000 TDB 
  -3.720738271794926E+00 -3.926255357055884E+00  9.953195331117476E-02
   5.384242636284320E-03 -4.835936235865672E-03 -1.004761628050582E-04
2453899.500000000 = A.D. 2006-Jun-13 00:00:00.0000 TDB 
  -3.693731086842034E+00 -3.950337058888338E+00  9.902747376633607E-02
   5.417800969737101E-03 -4.798014472261679E-03 -1.013731302906744E-04
2453904.500000000 = A.D. 2006-Jun-18 00:00:00.0000 TDB 
  -3.666552752240519E+00 -3.974234381860355E+00  9.851835133003828E-02
   5.452398887874381E-03 -4.760581174381044E-03 -1.022780559482974E-04
2453909.500000000 = A.D. 2006-Jun-23 00:00:00.0000 TDB 
  -3.639205499700069E+00 -3.997946468126174E+00  9.800458907518067E-02
   5.486836290189325E-03 -4.723779449446852E-03 -1.032079453249260E-04
2453914.500000000 = A.D. 2006-Jun-28 00:00:00.0000 TDB 
  -3.611686029817904E+00 -4.021471894932604E+00  9.748627805477708E-02
   5.520602830667336E-03 -4.686225297770217E-03 -1.041165254948843E-04
2453919.500000000 = A.D. 2006-Jul-03 00:00:00.0000 TDB 
  -3.583996627443408E+00 -4.044809243935115E+00  9.696341690968086E-02
   5.555042619862316E-03 -4.647879617809221E-03 -1.049962258376791E-04
2453924.500000000 = A.D. 2006-Jul-08 00:00:00.0000 TDB 
  -3.556142881788775E+00 -4.067956822724716E+00  9.643599763178959E-02
   5.587975486570049E-03 -4.611173023867476E-03 -1.059510299818319E-04
2453929.500000000 = A.D. 2006-Jul-13 00:00:00.0000 TDB 
  -3.528121790900794E+00 -4.090914711645400E+00  9.590406270291241E-02
   5.620546269611502E-03 -4.573555498551103E-03 -1.068809335968100E-04
2453934.500000000 = A.D. 2006-Jul-18 00:00:00.0000 TDB 
  -3.499932318242428E+00 -4.113680799836668E+00  9.536767726030858E-02
   5.653328802832621E-03 -4.533048969848718E-03 -1.077053782317670E-04
2453939.500000000 = A.D. 2006-Jul-23 00:00:00.0000 TDB 
  -3.471582020589554E+00 -4.136253913010414E+00  9.482678755634703E-02
   5.686497560851848E-03 -4.494785843820126E-03 -1.086030645662195E-04
2453944.500000000 = A.D. 2006-Jul-28 00:00:00.0000 TDB 
  -3.443069827017307E+00 -4.158633789089165E+00  9.428142304967140E-02
   5.719477705342581E-03 -4.456841083187145E-03 -1.095180743219245E-04
2453949.500000000 = A.D. 2006-Aug-02 00:00:00.0000 TDB 
  -3.414392960827423E+00 -4.180818178914764E+00  9.373168966980104E-02
   5.751174058779999E-03 -4.417140856931317E-03 -1.103835508890081E-04
2453954.500000000 = A.D. 2006-Aug-07 00:00:00.0000 TDB 
  -3.385557020147151E+00 -4.202806181569573E+00  9.317753924869905E-02
   5.783367783202325E-03 -4.377965918971469E-03 -1.112680154956927E-04
2453959.500000000 = A.D. 2006-Aug-12 00:00:00.0000 TDB 
  -3.356564254023122E+00 -4.224596662558526E+00  9.261899139073904E-02
   5.814417950522244E-03 -4.339015610087622E-03 -1.121725776692819E-04
2453964.500000000 = A.D. 2006-Aug-17 00:00:00.0000 TDB 
  -3.327411364208426E+00 -4.246189112081750E+00  9.205611070249212E-02
   5.845416096736339E-03 -4.298656442525687E-03 -1.130249015056638E-04
2453969.500000000 = A.D. 2006-Aug-22 00:00:00.0000 TDB 
  -3.298100768382850E+00 -4.267581899612472E+00  9.148890495084233E-02
   5.877563592474504E-03 -4.257162828315137E-03 -1.138261836010924E-04
2453974.500000000 = A.D. 2006-Aug-27 00:00:00.0000 TDB 
  -3.268638630414000E+00 -4.288773322546962E+00  9.091736693641747E-02
   5.908637517228409E-03 -4.218241955721122E-03 -1.147281806418444E-04
2453979.500000000 = A.D. 2006-Sep-01 00:00:00.0000 TDB 
  -3.239021623711199E+00 -4.309763550919300E+00  9.034154296155852E-02
   5.939216733263828E-03 -4.178710443181749E-03 -1.156189051550514E-04
2453984.500000000 = A.D. 2006-Sep-06 00:00:00.0000 TDB 
  -3.209249019190520E+00 -4.330550237348973E+00  8.976151054554532E-02
   5.969033024976748E-03 -4.136615730777730E-03 -1.164265247751067E-04
2453989.500000000 = A.D. 2006-Sep-11 00:00:00.0000 TDB 
  -3.179328123427540E+00 -4.351132503031622E+00  8.917721433580220E-02
   5.999105520412313E-03 -4.096175643005961E-03 -1.172901448862271E-04
2453994.500000000 = A.D. 2006-Sep-16 00:00:00.0000 TDB 
  -3.149257758650442E+00 -4.371510072967740E+00  8.858868965115532E-02
   6.029001758853542E-03 -4.055174403229595E-03 -1.181352842349793E-04
2453999.500000000 = A.D. 2006-Sep-21 00:00:00.0000 TDB 
  -3.119035779037337E+00 -4.391681330556781E+00  8.799601958224269E-02
   6.058603487343875E-03 -4.012796402016733E-03 -1.189295957926426E-04
2454004.500000000 = A.D. 2006-Sep-26 00:00:00.0000 TDB 
  -3.088667695968288E+00 -4.411645054208525E+00  8.739917099332019E-02
   6.089011270028307E-03 -3.971339058627841E-03 -1.197526035751779E-04
2454009.500000000 = A.D. 2006-Oct-01 00:00:00.0000 TDB 
  -3.058156080388302E+00 -4.431399739926306E+00  8.679818046711199E-02
   6.117476472194838E-03 -3.930940387021700E-03 -1.206335174929872E-04
2454014.500000000 = A.D. 2006-Oct-06 00:00:00.0000 TDB 
  -3.027497314941585E+00 -4.450945450307059E+00  8.619310151828791E-02
   6.145583424667964E-03 -3.888863999706339E-03 -1.214595462146708E-04
2454019.500000000 = A.D. 2006-Oct-11 00:00:00.0000 TDB 
  -2.996693818469252E+00 -4.470280286101037E+00  8.558395693540814E-02
   6.174292377139672E-03 -3.844927744163360E-03 -1.222126175651370E-04
2454024.500000000 = A.D. 2006-Oct-16 00:00:00.0000 TDB 
  -2.965752032872146E+00 -4.489402967402500E+00  8.497072832675670E-02
   6.202561800856079E-03 -3.803335409303799E-03 -1.230487621830975E-04
2454029.500000000 = A.D. 2006-Oct-21 00:00:00.0000 TDB 
  -2.934668522229529E+00 -4.508313837065758E+00  8.435345957994207E-02
   6.231021597633514E-03 -3.760939494292119E-03 -1.238554387924452E-04
2454034.500000000 = A.D. 2006-Oct-26 00:00:00.0000 TDB 
  -2.903443267349188E+00 -4.527010451163227E+00  8.373223087718148E-02
   6.258754442813948E-03 -3.717111595950057E-03 -1.246162607248846E-04
2454039.500000000 = A.D. 2006-Oct-31 00:00:00.0000 TDB 
  -2.872083256036794E+00 -4.545491823858551E+00  8.310699905658904E-02
   6.286343810340355E-03 -3.675250673328947E-03 -1.254522800428116E-04
2454044.500000000 = A.D. 2006-Nov-05 00:00:00.0000 TDB 
  -2.840587187198477E+00 -4.563757446614844E+00  8.247781557421556E-02
   6.312682155868770E-03 -3.632419519922124E-03 -1.262664394726415E-04
2454049.500000000 = A.D. 2006-Nov-10 00:00:00.0000 TDB 
  -2.808953086165743E+00 -4.581806522897363E+00  8.184473965177870E-02
   6.339107206821766E-03 -3.587715050894012E-03 -1.270076723790909E-04
2454054.500000000 = A.D. 2006-Nov-15 00:00:00.0000 TDB 
  -2.777186368247817E+00 -4.599637636457998E+00  8.120774929131482E-02
   6.366782643584166E-03 -3.543319046821003E-03 -1.277470455002911E-04
2454059.500000000 = A.D. 2006-Nov-20 00:00:00.0000 TDB 
  -2.745290192380339E+00 -4.617249333586839E+00  8.056687976080111E-02
   6.392963052371610E-03 -3.500696401067794E-03 -1.285604675259658E-04
